{
  "type": "FeatureCollection",
  "features": [
    {
      "type": "Feature",
      "geometry": {
        "type": "MultiPolygon",
        "coordinates": [
          [
            [
              [-97.899238, 29.857582999999998],
              [-97.712548, 30.020612999999997],
              [-97.71021499999999, 30.024499],
              [-97.66576099999999, 30.063861999999997],
              [-97.64936999999999, 30.067944],
              [-97.315823, 29.786540999999996],
              [-97.317893, 29.784658],
              [-97.597743, 29.630717999999998],
              [-97.63317599999999, 29.649863],
              [-97.76845900000001, 29.719103],
              [-97.780917, 29.759258],
              [-97.799396, 29.75226],
              [-97.875259, 29.858208],
              [-97.899238, 29.857582999999998]
            ]
          ]
        ]
      },
      "properties": {
        ":id": "row-4azd.w69j-vns6",
        ":version": "rv-fis3_4vxj~z5wr",
        ":created_at": "2018-08-14T23:43:54.855Z",
        ":updated_at": "2018-08-14T23:43:54.855Z",
        "statefp": "48",
        "countyfp": "055",
        "countyns": "01383813",
        "affgeoid": "0500000US48055",
        "geoid": "48055",
        "name": "Caldwell",
        "lsad": "06",
        "aland": "1412139126",
        "awater": "4972802"
      }
    },
    {
      "type": "Feature",
      "geometry": {
        "type": "MultiPolygon",
        "coordinates": [
          [
            [
              [-102.085733, 33.824675],
              [-101.56358, 33.830451],
              [-101.556884, 33.394760000000005],
              [-102.075929, 33.389586],
              [-102.085733, 33.824675]
            ]
          ]
        ]
      },
      "properties": {
        ":id": "row-vnpc-afbi-dcvt",
        ":version": "rv-35ws.k7wz.fyjj",
        ":created_at": "2018-08-14T23:43:54.855Z",
        ":updated_at": "2018-08-14T23:43:54.855Z",
        "statefp": "48",
        "countyfp": "303",
        "countyns": "01383937",
        "affgeoid": "0500000US48303",
        "geoid": "48303",
        "name": "Lubbock",
        "lsad": "06",
        "aland": "2319602826",
        "awater": "13205756"
      }
    },
    {
      "type": "Feature",
      "geometry": {
        "type": "MultiPolygon",
        "coordinates": [
          [
            [
              [-102.162752, 35.620035],
              [-101.6228, 35.620196],
              [-101.622941, 35.183116999999996],
              [-102.167471, 35.183233],
              [-102.162752, 35.620035]
            ]
          ]
        ]
      },
      "properties": {
        ":id": "row-a552-datg-bgx6",
        ":version": "rv-rkf5.2k3z~2hkp",
        ":created_at": "2018-08-14T23:43:54.855Z",
        ":updated_at": "2018-08-14T23:43:54.855Z",
        "statefp": "48",
        "countyfp": "375",
        "countyns": "01383973",
        "affgeoid": "0500000US48375",
        "geoid": "48375",
        "name": "Potter",
        "lsad": "06",
        "aland": "2352751873",
        "awater": "35190086"
      }
    },
    {
      "type": "Feature",
      "geometry": {
        "type": "MultiPolygon",
        "coordinates": [
          [
            [
              [-98.17297699999999, 30.356312],
              [-97.857222, 30.131240000000002],
              [-97.85716099999999, 30.131196],
              [-97.813018, 30.098613000000004],
              [-97.78136900000001, 30.075670000000002],
              [-97.71021499999999, 30.024499],
              [-97.712548, 30.020612999999997],
              [-97.899238, 29.857582999999998],
              [-97.875259, 29.858208],
              [-97.943564, 29.806914000000003],
              [-97.999271, 29.752443999999997],
              [-98.01518, 29.801485],
              [-98.030523, 29.848539],
              [-98.12127, 29.912844000000003],
              [-98.2976, 30.037993999999994],
              [-98.17297699999999, 30.356312]
            ]
          ]
        ]
      },
      "properties": {
        ":id": "row-upz7.idet~z2z6",
        ":version": "rv-mpx5.5zej.2fyu",
        ":created_at": "2018-08-14T23:43:54.855Z",
        ":updated_at": "2018-08-14T23:43:54.855Z",
        "statefp": "48",
        "countyfp": "209",
        "countyns": "01383890",
        "affgeoid": "0500000US48209",
        "geoid": "48209",
        "name": "Hays",
        "lsad": "06",
        "aland": "1755978743",
        "awater": "5037781"
      }
    },
    {
      "type": "Feature",
      "geometry": {
        "type": "MultiPolygon",
        "coordinates": [
          [
            [
              [-97.49135, 30.211930000000002],
              [-97.491254, 30.212110000000003],
              [-97.400089, 30.367905999999998],
              [-97.36953899999999, 30.419563],
              [-97.334463, 30.402843],
              [-97.251707, 30.362848000000003],
              [-97.199578, 30.337833000000003],
              [-97.158811, 30.310695],
              [-97.081834, 30.259356999999998],
              [-97.024461, 30.051435],
              [-97.19423499999999, 29.896776],
              [-97.315823, 29.786540999999996],
              [-97.64936999999999, 30.067944],
              [-97.49135, 30.211930000000002]
            ]
          ]
        ]
      },
      "properties": {
        ":id": "row-fv2g-uxag~du7a",
        ":version": "rv-4xky~6bp4-ui2c",
        ":created_at": "2018-08-14T23:43:54.855Z",
        ":updated_at": "2018-08-14T23:43:54.855Z",
        "statefp": "48",
        "countyfp": "021",
        "countyns": "01383796",
        "affgeoid": "0500000US48021",
        "geoid": "48021",
        "name": "Bastrop",
        "lsad": "06",
        "aland": "2300355868",
        "awater": "19105699"
      }
    },
    {
      "type": "Feature",
      "geometry": {
        "type": "MultiPolygon",
        "coordinates": [
          [
            [
              [-97.96285999999999, 30.785640999999995],
              [-97.82851199999999, 30.906188],
              [-97.62491, 30.870334],
              [-97.315507, 30.752371],
              [-97.271418, 30.735692000000004],
              [-97.155219, 30.457344000000003],
              [-97.334463, 30.402843],
              [-97.36953899999999, 30.419563],
              [-97.59623599999999, 30.501513000000003],
              [-97.77345799999999, 30.430654],
              [-97.848384, 30.472662],
              [-97.85750499999999, 30.501609999999996],
              [-97.956734, 30.628249],
              [-98.049886, 30.624155000000002],
              [-97.96285999999999, 30.785640999999995]
            ]
          ]
        ]
      },
      "properties": {
        ":id": "row-u55r~hm7n.xxfa",
        ":version": "rv-fx6v~dxyn.pwgq",
        ":created_at": "2018-08-14T23:43:54.855Z",
        ":updated_at": "2018-08-14T23:43:54.855Z",
        "statefp": "48",
        "countyfp": "491",
        "countyns": "01384031",
        "affgeoid": "0500000US48491",
        "geoid": "48491",
        "name": "Williamson",
        "lsad": "06",
        "aland": "2896480321",
        "awater": "41629535"
      }
    },
    {
      "type": "Feature",
      "geometry": {
        "type": "MultiPolygon",
        "coordinates": [
          [
            [
              [-98.12555599999999, 30.426185999999998],
              [-98.12342, 30.486482000000002],
              [-98.049886, 30.624155000000002],
              [-97.956734, 30.628249],
              [-97.85750499999999, 30.501609999999996],
              [-97.848384, 30.472662],
              [-97.77345799999999, 30.430654],
              [-97.59623599999999, 30.501513000000003],
              [-97.36953899999999, 30.419563],
              [-97.400089, 30.367905999999998],
              [-97.491254, 30.212110000000003],
              [-97.49135, 30.211930000000002],
              [-97.64936999999999, 30.067944],
              [-97.66576099999999, 30.063861999999997],
              [-97.71021499999999, 30.024499],
              [-97.78136900000001, 30.075670000000002],
              [-97.813018, 30.098613000000004],
              [-97.85716099999999, 30.131196],
              [-97.857222, 30.131240000000002],
              [-98.17297699999999, 30.356312],
              [-98.12555599999999, 30.426185999999998]
            ]
          ]
        ]
      },
      "properties": {
        ":id": "row-d6vg-wt7i~kfir",
        ":version": "rv-cere_dadt.4zh2",
        ":created_at": "2018-08-14T23:43:54.855Z",
        ":updated_at": "2018-08-14T23:43:54.855Z",
        "statefp": "48",
        "countyfp": "453",
        "countyns": "01384012",
        "affgeoid": "0500000US48453",
        "geoid": "48453",
        "name": "Travis",
        "lsad": "06",
        "aland": "2569073026",
        "awater": "80592292"
      }
    }
  ]
}
